[{"OBJECT_NAME":"HULIANWANG DIGUI-138","OBJECT_ID":"2026-007B","EPOCH":"2026-03-03T07:24:38.053728","MEAN_MOTION":13.43759546,"ECCENTRICITY":5.936e-5,"INCLINATION":50.0071,"RA_OF_ASC_NODE":106.2207,"ARG_OF_PERICENTER":208.7562,"MEAN_ANOMALY":151.3284,"EPHEMERIS_TYPE":0,"CLASSIFICATION_TYPE":"U","NORAD_CAT_ID":67436,"ELEMENT_SET_NO":999,"REV_AT_EPOCH":669,"BSTAR":0.00017181448,"MEAN_MOTION_DOT":-3.0e-7,"MEAN_MOTION_DDOT":0},{"OBJECT_NAME":"FENGYUN 1C DEB","OBJECT_ID":"1999-025PX","EPOCH":"2026-03-09T16:04:06.485664","MEAN_MOTION":14.10804989,"ECCENTRICITY":0.03269575,"INCLINATION":98.2718,"RA_OF_ASC_NODE":126.6385,"ARG_OF_PERICENTER":69.088,"MEAN_ANOMALY":54.3136,"EPHEMERIS_TYPE":0,"CLASSIFICATION_TYPE":"U","NORAD_CAT_ID":30070,"ELEMENT_SET_NO":999,"REV_AT_EPOCH":97104,"BSTAR":0.0013765845,"MEAN_MOTION_DOT":4.031e-5,"MEAN_MOTION_DDOT":0}]
